ONEWEB-0665             
1 55825U 23029AF  25265.90883955  .00000536  00000+0  14106-2 0  9995
2 55825  87.9088 342.9572 0001525  99.7047 260.4255 13.14500339124299
ONEWEB-0666             
1 55826U 23029AG  25265.91519542 -.00000087  00000+0 -24532-3 0  9993
2 55826  87.9262 327.7802 0002628 102.4749 257.6679 13.20771491125876
ONEWEB-0667             
1 55827U 23029AH  25265.90888097  .00000044  00000+0  75271-4 0  9995
2 55827  87.9266 327.7093 0001687  95.8350 264.2976 13.20771329125863
ONEWEB-0669             
1 55828U 23029AJ  25265.90415006  .00000098  00000+0  20800-3 0  9998
2 55828  87.9265 327.7502 0002362  84.1184 276.0219 13.20770389125861
ONEWEB-0670             
1 55829U 23029AK  25265.50604039  .00000116  00000+0  27929-3 0  9991
2 55829  87.9087 343.0569 0001585  88.0810 272.0501 13.14503804124265
ONEWEB-0671             
1 55830U 23029AL  25265.80930557 -.00000717  00000+0 -18226-2 0  9991
2 55830  87.9293 358.1585 0001994  94.6498 265.4862 13.19721550123631
ONEWEB-0672             
1 55831U 23029AM  25265.89940672  .00000074  00000+0  15034-3 0  9999
2 55831  87.9257 327.7335 0002191  97.7750 262.3632 13.20769534125866
ONEWEB-0673             
1 55832U 23029AN  25265.55816031  .00000010  00000+0 -63859-5 0  9995
2 55832  87.9296 358.1754 0001676 105.5000 254.6318 13.19726593123607
